[{"OBJECT_NAME":"STARLINK-30498","OBJECT_ID":"2023-151H","EPOCH":"2026-03-09T22:00:01.999584","MEAN_MOTION":15.27563001,"ECCENTRICITY":0.00018388,"INCLINATION":43.0024,"RA_OF_ASC_NODE":334.6781,"ARG_OF_PERICENTER":252.4444,"MEAN_ANOMALY":31.6341,"EPHEMERIS_TYPE":0,"CLASSIFICATION_TYPE":"U","NORAD_CAT_ID":57971,"ELEMENT_SET_NO":999,"REV_AT_EPOCH":578,"BSTAR":0.00046944819,"MEAN_MOTION_DOT":0.00012672,"MEAN_MOTION_DDOT":0},{"OBJECT_NAME":"HERMES-4","OBJECT_ID":"2025-052BP","EPOCH":"2026-03-09T22:05:58.629408","MEAN_MOTION":15.26796135,"ECCENTRICITY":0.00026523,"INCLINATION":97.4,"RA_OF_ASC_NODE":323.461,"ARG_OF_PERICENTER":154.9526,"MEAN_ANOMALY":205.1842,"EPHEMERIS_TYPE":0,"CLASSIFICATION_TYPE":"U","NORAD_CAT_ID":63833,"ELEMENT_SET_NO":999,"REV_AT_EPOCH":5478,"BSTAR":0.00081237216,"MEAN_MOTION_DOT":0.00021364,"MEAN_MOTION_DDOT":0}]
